NORAD_CAT_ID,OBJECT_NAME,OBJECT_TYPE,EPOCH,MEAN_MOTION,ECCENTRICITY,INCLINATION,RA_OF_ASC_NODE,ARG_OF_PERICENTER,MEAN_ANOMALY,BSTAR,MEAN_MOTION_DOT,MEAN_MOTION_DDOT,TLE_LINE0,TLE_LINE1,TLE_LINE2,SEMIMAJOR_AXIS,PERIOD,APOGEE,PERIGEE,DECAYED
52536.0,STARLINK-3964,PAYLOAD,2024-03-01 14:14:20,15.08839382,0.0001341,53.2173,202.563,97.5519,262.5625,0.00010519,1.387e-05,0.0,0 STARLINK-3964,1 52536U 22051D   24061.59329230  .00001387  00000-0  10519-3 0  9995,2 52536  53.2173 202.5630 0001341  97.5519 262.5625 15.08839382100014,6917.882,95.438,540.675,538.82,0.0
52536.0,STARLINK-3964,PAYLOAD,2024-03-01 15:49:43,15.08843362,0.0001424,53.2171,202.2651,100.125,259.9903,6.157e-05,6.92e-06,0.0,0 STARLINK-3964,1 52536U 22051D   24061.65953050  .00000692  00000-0  61570-4 0  9997,2 52536  53.2171 202.2651 0001424 100.1250 259.9903 15.08843362100020,6917.87,95.437,540.72,538.75,0.0
52536.0,STARLINK-3964,PAYLOAD,2024-03-02 12:29:44,15.08846559,0.0001523,53.2172,198.4003,91.0839,269.0327,4.3934e-05,4.11e-06,0.0,0 STARLINK-3964,1 52536U 22051D   24062.52064971  .00000411  00000-0  43934-4 0  9992,2 52536  53.2172 198.4003 0001523  91.0839 269.0327 15.08846559100224,6917.86,95.437,540.779,538.672,0.0
52536.0,STARLINK-3964,PAYLOAD,2024-03-02 14:05:07,15.08834581,0.0001414,53.2173,198.1029,95.9051,264.2102,0.00040677,6.191e-05,0.0,0 STARLINK-3964,1 52536U 22051D   24062.58689757  .00006191  00000-0  40677-3 0  9994,2 52536  53.2173 198.1029 0001414  95.9051 264.2102 15.08834581100161,6917.897,95.438,540.74,538.784,0.0
52536.0,STARLINK-3964,PAYLOAD,2024-03-02 15:40:30,15.08841311,0.0001436,53.2173,197.8061,93.0089,267.1068,0.00015716,2.214e-05,0.0,0 STARLINK-3964,1 52536U 22051D   24062.65313320  .00002214  00000-0  15716-3 0  9990,2 52536  53.2173 197.8061 0001436  93.0089 267.1068 15.08841311100170,6917.876,95.437,540.735,538.748,0.0
52536.0,STARLINK-3964,PAYLOAD,2024-03-03 12:20:31,15.08840062,0.0001421,53.2168,193.9399,92.0777,268.0378,0.00011947,1.614e-05,0.0,0 STARLINK-3964,1 52536U 22051D   24063.51425445  .00001614  00000-0  11947-3 0  9993,2 52536  53.2168 193.9399 0001421  92.0777 268.0378 15.08840062100370,6917.88,95.438,540.728,538.762,0.0
52536.0,STARLINK-3964,PAYLOAD,2024-03-03 13:55:54,15.08838376,0.0001408,53.2168,193.6426,91.9619,268.1535,8.8071e-05,1.114e-05,0.0,0 STARLINK-3964,1 52536U 22051D   24063.58049508  .00001114  00000-0  88071-4 0  9990,2 52536  53.2168 193.6426 0001408  91.9619 268.1535 15.08838376100311,6917.885,95.438,540.724,538.776,0.0
52536.0,STARLINK-3964,PAYLOAD,2024-03-03 18:42:03,15.08841903,0.0001328,53.2162,192.7484,90.3407,269.7738,7.721e-05,9.41e-06,0.0,0 STARLINK-3964,1 52536U 22051D   24063.77921276  .00000941  00000-0  77210-4 0  9992,2 52536  53.2162 192.7484 0001328  90.3407 269.7738 15.08841903100343,6917.875,95.437,540.658,538.821,0.0
52536.0,STARLINK-3964,PAYLOAD,2024-03-04 13:46:40,15.08856482,0.0001398,53.2167,189.1815,96.7174,263.3978,0.00029547,4.42e-05,0.0,0 STARLINK-3964,1 52536U 22051D   24064.57408123  .00004420  00000-0  29547-3 0  9997,2 52536  53.2167 189.1815 0001398  96.7174 263.3978 15.08856482100539,6917.83,95.437,540.662,538.728,0.0
52536.0,STARLINK-3964,PAYLOAD,2024-03-04 15:22:03,15.08860754,0.0001422,53.2167,188.8841,95.6845,264.4309,0.00037533,5.694e-05,0.0,0 STARLINK-3964,1 52536U 22051D   24064.64032019  .00005694  00000-0  37533-3 0  9990,2 52536  53.2167 188.8841 0001422  95.6845 264.4309 15.08860754100475,6917.817,95.436,540.666,538.698,0.0
52536.0,STARLINK-3964,PAYLOAD,2024-03-05 00:54:21,15.08879556,0.0001304,53.2164,187.0999,90.1183,269.9959,0.00059399,9.188e-05,0.0,0 STARLINK-3964,1 52536U 22051D   24065.03774570  .00009188  00000-0  59399-3 0  9995,2 52536  53.2164 187.0999 0001304  90.1183 269.9959 15.08879556100607,6917.759,95.435,540.527,538.722,0.0
52536.0,STARLINK-3964,PAYLOAD,2024-03-05 13:37:28,15.0881451,0.0001594,53.2164,184.7216,101.4411,258.6761,-0.00097224,-0.00015717,0.0,0 STARLINK-3964,1 52536U 22051D   24065.56768559 -.00015717  00000-0 -97224-3 0  9999,2 52536  53.2164 184.7216 0001594 101.4411 258.6761 15.08814510100610,6917.958,95.439,540.926,538.721,0.0
52536.0,STARLINK-3964,PAYLOAD,2024-03-05 21:34:24,15.08816477,0.0001426,53.2155,183.2344,100.3234,259.7918,0.00023879,3.512e-05,0.0,0 STARLINK-3964,1 52536U 22051D   24065.89889044  .00003512  00000-0  23879-3 0  9991,2 52536  53.2155 183.2344 0001426 100.3234 259.7918 15.08816477100734,6917.952,95.439,540.804,538.831,0.0
52536.0,STARLINK-3964,PAYLOAD,2024-03-06 13:28:16,15.0883777,0.0001403,53.2157,180.2618,100.4968,259.6182,0.0015188,0.00023965,0.0,0 STARLINK-3964,1 52536U 22051D   24066.56130187  .00023965  00000-0  15188-2 0  9990,2 52536  53.2157 180.2618 0001403 100.4968 259.6182 15.08837770100761,6917.887,95.438,540.723,538.782,0.0
52536.0,STARLINK-3964,PAYLOAD,2024-03-06 15:03:39,15.0884187,0.0001368,53.2156,179.9644,98.5873,261.5275,0.0016065,0.00025373,0.0,0 STARLINK-3964,1 52536U 22051D   24066.62754176  .00025373  00000-0  16065-2 0  9997,2 52536  53.2156 179.9644 0001368  98.5873 261.5275 15.08841870100846,6917.875,95.437,540.686,538.793,0.0
52536.0,STARLINK-3964,PAYLOAD,2024-03-07 13:19:03,15.08840376,0.0001339,53.215,175.8011,90.504,269.6106,0.0011892,0.00018689,0.0,0 STARLINK-3964,1 52536U 22051D   24067.55490211  .00018689  00000-0  11892-2 0  9992,2 52536  53.2150 175.8011 0001339  90.5040 269.6106 15.08840376100919,6917.879,95.438,540.671,538.818,0.0
52536.0,STARLINK-3964,PAYLOAD,2024-03-08 13:09:50,15.08846341,0.0001176,53.2173,171.3402,99.7619,260.3506,0.00088661,0.00013853,0.0,0 STARLINK-3964,1 52536U 22051D   24068.54850248  .00013853  00000-0  88661-3 0  9999,2 52536  53.2173 171.3402 0001176  99.7619 260.3506 15.08846341101136,6917.861,95.437,540.54,538.912,0.0
52536.0,STARLINK-3964,PAYLOAD,2024-03-09 13:00:37,15.08850397,0.0001069,53.2181,166.8802,75.6274,284.4837,0.00058843,9.092e-05,0.0,0 STARLINK-3964,1 52536U 22051D   24069.54210276  .00009092  00000-0  58843-3 0  9990,2 52536  53.2181 166.8802 0001069  75.6274 284.4837 15.08850397101285,6917.849,95.437,540.453,538.974,0.0
52536.0,STARLINK-3964,PAYLOAD,2024-03-10 12:51:24,15.08846615,0.0001289,53.218,162.4207,81.0461,279.0677,0.00033602,5.065e-05,0.0,0 STARLINK-3964,1 52536U 22051D   24070.53570356  .00005065  00000-0  33602-3 0  9991,2 52536  53.2180 162.4207 0001289  81.0461 279.0677 15.08846615101435,6917.86,95.437,540.617,538.833,0.0
52536.0,STARLINK-3964,PAYLOAD,2024-03-11 12:42:11,15.08840101,0.0001298,53.2166,157.9582,85.2359,274.8782,7.717e-05,9.4e-06,0.0,0 STARLINK-3964,1 52536U 22051D   24071.52930393  .00000940  00000-0  77170-4 0  9998,2 52536  53.2166 157.9582 0001298  85.2359 274.8782 15.08840101101586,6917.88,95.438,540.643,538.847,0.0
52536.0,STARLINK-3964,PAYLOAD,2024-03-12 10:57:36,15.08834832,0.0001334,53.2171,153.7951,89.5423,270.5722,9.5874e-05,1.238e-05,0.0,0 STARLINK-3964,1 52536U 22051D   24072.45666840  .00001238  00000-0  95874-4 0  9996,2 52536  53.2171 153.7951 0001334  89.5423 270.5722 15.08834832101723,6917.896,95.438,540.684,538.838,0.0
52536.0,STARLINK-3964,PAYLOAD,2024-03-12 22:05:17,15.08846034,0.0001275,53.2173,151.7146,86.8286,273.2852,0.00016421,2.327e-05,0.0,0 STARLINK-3964,1 52536U 22051D   24072.92034003  .00002327  00000-0  16421-3 0  9998,2 52536  53.2173 151.7146 0001275  86.8286 273.2852 15.08846034101721,6917.862,95.437,540.609,538.845,0.0
52536.0,STARLINK-3964,PAYLOAD,2024-03-13 12:23:46,15.08832221,0.0001501,53.2175,149.0365,80.5403,279.5759,4.2213e-05,3.84e-06,0.0,0 STARLINK-3964,1 52536U 22051D   24073.51651521  .00000384  00000-0  42213-4 0  9994,2 52536  53.2175 149.0365 0001501  80.5403 279.5759 15.08832221101885,6917.904,95.438,540.808,538.731,0.0
52536.0,STARLINK-3964,PAYLOAD,2024-03-13 13:59:09,15.08834161,0.0001567,53.2181,148.7439,95.4926,264.6245,8.218e-05,1.02e-05,0.0,0 STARLINK-3964,1 52536U 22051D   24073.58275416  .00001020  00000-0  82180-4 0  9991,2 52536  53.2181 148.7439 0001567  95.4926 264.6245 15.08834161101821,6917.898,95.438,540.847,538.679,0.0
52536.0,STARLINK-3964,PAYLOAD,2024-03-14 04:17:37,15.08839661,0.0001675,53.2178,146.0649,88.4038,271.7146,0.00010769,1.426e-05,0.0,0 STARLINK-3964,1 52536U 22051D   24074.17890897  .00001426  00000-0  10769-3 0  9996,2 52536  53.2178 146.0649 0001675  88.4038 271.7146 15.08839661101983,6917.881,95.438,540.905,538.588,0.0
52536.0,STARLINK-3964,PAYLOAD,2024-03-14 12:14:33,15.08848346,0.0001568,53.2169,144.5794,89.207,270.9102,0.00025473,3.769e-05,0.0,0 STARLINK-3964,1 52536U 22051D   24074.51010463  .00003769  00000-0  25473-3 0  9997,2 52536  53.2169 144.5794 0001568  89.2070 270.9102 15.08848346102033,6917.855,95.437,540.805,538.635,0.0
52536.0,STARLINK-3964,PAYLOAD,2024-03-15 12:05:20,15.08845096,0.0001404,53.2153,140.1175,91.8642,268.251,0.00014312,1.991e-05,0.0,0 STARLINK-3964,1 52536U 22051D   24075.50370383  .00001991  00000-0  14312-3 0  9992,2 52536  53.2153 140.1175 0001404  91.8642 268.2510 15.08845096102182,6917.865,95.437,540.701,538.759,0.0
52536.0,STARLINK-3964,PAYLOAD,2024-03-16 10:20:44,15.08840597,0.0001468,53.2158,135.9542,85.9376,274.1784,-3.7179e-05,-8.8e-06,0.0,0 STARLINK-3964,1 52536U 22051D   24076.43106597 -.00000880  00000-0 -37179-4 0  9994,2 52536  53.2158 135.9542 0001468  85.9376 274.1784 15.08840597102321,6917.879,95.438,540.759,538.728,0.0
52536.0,STARLINK-3964,PAYLOAD,2024-03-17 10:11:31,15.08839872,0.0001461,53.2166,131.4935,85.0076,275.1083,7.7132e-05,9.4e-06,0.0,0 STARLINK-3964,1 52536U 22051D   24077.42466597  .00000940  00000-0  77132-4 0  9991,2 52536  53.2166 131.4935 0001461  85.0076 275.1083 15.08839872102404,6917.881,95.438,540.756,538.735,0.0
52536.0,STARLINK-3964,PAYLOAD,2024-03-18 10:02:18,15.08837733,0.0001569,53.2172,127.0321,107.0956,253.0208,7.0376e-05,8.32e-06,0.0,0 STARLINK-3964,1 52536U 22051D   24078.41826718  .00000832  00000-0  70376-4 0  9999,2 52536  53.2172 127.0321 0001569 107.0956 253.0208 15.08837733102624,6917.887,95.438,540.838,538.667,0.0
